FLOCK 4BE-34            
1 60495U 24149AD  26066.17934862  .00018845  00000+0  50787-3 0  9999
2 60495  97.3823 149.7619 0002339 273.5315  86.5663 15.37865985 86632
FLOCK 4BE-32            
1 60497U 24149AF  26066.19822830  .00024428  00000+0  64717-3 0  9996
2 60497  97.3766 149.2876 0002708 276.1201  83.9735 15.38340527 86635
FLOCK 4BE-30            
1 60499U 24149AH  26066.14408519  .00013889  00000+0  37222-3 0  9997
2 60499  97.3848 149.7931 0001965 273.1116  86.9904 15.38107181 86000
FLOCK 4BE-11            
1 60501U 24149AK  26066.18298023  .00024046  00000+0  62037-3 0  9991
2 60501  97.3745 149.4006 0003088 274.7319  85.3573 15.39159463 86646
FLOCK 4BE-24            
1 60505U 24149AP  26066.16436485  .00024445  00000+0  63336-3 0  9995
2 60505  97.3760 149.6282 0002943 284.9292  75.1628 15.39026184 86659
TANAGER-1               
1 60507U 24149AR  26064.34973296  .00005482  00000+0  12407-3 0  9994
2 60507  97.3770 157.6642 0006725 235.9479 124.1131 15.43548696 87013
FLOCK 4BE-29            
1 60509U 24149AT  26066.19311890  .00027206  00000+0  67554-3 0  9998
2 60509  97.3846 150.7965 0001945 304.9243  55.1820 15.40309160 86695
FLOCK 4BE-2             
1 60511U 24149AV  26066.16526487  .00051360  00000+0  11640-2 0  9990
2 60511  97.3851 151.3370 0002793 282.9083  77.1852 15.42926469 86722
FLOCK 4BE-13            
1 60512U 24149AW  26066.17016787  .00021798  00000+0  57116-3 0  9990
2 60512  97.3761 149.7359 0003399 277.1244  82.9614 15.38702815 86664
FLOCK 4BE-27            
1 60513U 24149AX  26066.14169024  .00011442  00000+0  36671-3 0  9999
2 60513  97.3866 148.0706 0002718 318.5930  41.5106 15.32517510 86505
FLOCK 4BE-9             
1 60514U 24149AY  26066.15359998  .00019753  00000+0  53895-3 0  9992
2 60514  97.3830 149.6700 0001519 309.7714  50.3397 15.37475000 86623
FLOCK 4BE-6             
1 60516U 24149BA  26066.17568096  .00017239  00000+0  48558-3 0  9994
2 60516  97.3833 149.2208 0002256 305.3477  54.7556 15.36510185 86598
FLOCK 4BE-14            
1 60517U 24149BB  26066.17602528  .00020212  00000+0  54976-3 0  9990
2 60517  97.3745 149.2924 0003236 301.4910  58.6018 15.37563988 86635
FLOCK 4BE-1             
1 60518U 24149BC  26066.15970426  .00022512  00000+0  58714-3 0  9993
2 60518  97.3820 150.2131 0003221 296.5691  63.5224 15.38839424 86665
FLOCK 4BE-28            
1 60519U 24149BD  26066.18931747  .00026664  00000+0  65008-3 0  9996
2 60519  97.3787 150.6708 0003558 296.7972  63.2910 15.40865332 86714
FLOCK 4BE-35            
1 60558U 24149CU  26066.17999052  .00099892  00000+0  22362-2 0  9999
2 60558  97.3790 149.3911 0004766 266.9176  93.1526 15.43075975 86612
FLOCK 4BE-5             
1 60559U 24149CV  26066.18792676  .00023113  00000+0  64203-3 0  9998
2 60559  97.3882 149.4393 0002488 303.7369  56.3638 15.36883534 86595
