[{"OBJECT_NAME":"FLOCK 4BE-34","OBJECT_ID":"2024-149AD","EPOCH":"2026-03-07T04:18:15.720768","MEAN_MOTION":15.37865985,"ECCENTRICITY":0.0002339,"INCLINATION":97.3823,"RA_OF_ASC_NODE":149.7619,"ARG_OF_PERICENTER":273.5315,"MEAN_ANOMALY":86.5663,"EPHEMERIS_TYPE":0,"CLASSIFICATION_TYPE":"U","NORAD_CAT_ID":60495,"ELEMENT_SET_NO":999,"REV_AT_EPOCH":8663,"BSTAR":0.00050787,"MEAN_MOTION_DOT":0.00018845,"MEAN_MOTION_DDOT":0},{"OBJECT_NAME":"FLOCK 4BE-32","OBJECT_ID":"2024-149AF","EPOCH":"2026-03-07T04:45:26.925120","MEAN_MOTION":15.38340527,"ECCENTRICITY":0.0002708,"INCLINATION":97.3766,"RA_OF_ASC_NODE":149.2876,"ARG_OF_PERICENTER":276.1201,"MEAN_ANOMALY":83.9735,"EPHEMERIS_TYPE":0,"CLASSIFICATION_TYPE":"U","NORAD_CAT_ID":60497,"ELEMENT_SET_NO":999,"REV_AT_EPOCH":8663,"BSTAR":0.00064717,"MEAN_MOTION_DOT":0.00024428,"MEAN_MOTION_DDOT":0},{"OBJECT_NAME":"FLOCK 4BE-30","OBJECT_ID":"2024-149AH","EPOCH":"2026-03-07T03:27:28.960416","MEAN_MOTION":15.38107181,"ECCENTRICITY":0.0001965,"INCLINATION":97.3848,"RA_OF_ASC_NODE":149.7931,"ARG_OF_PERICENTER":273.1116,"MEAN_ANOMALY":86.9904,"EPHEMERIS_TYPE":0,"CLASSIFICATION_TYPE":"U","NORAD_CAT_ID":60499,"ELEMENT_SET_NO":999,"REV_AT_EPOCH":8600,"BSTAR":0.00037222,"MEAN_MOTION_DOT":0.00013889,"MEAN_MOTION_DDOT":0},{"OBJECT_NAME":"FLOCK 4BE-11","OBJECT_ID":"2024-149AK","EPOCH":"2026-03-07T04:23:29.491872","MEAN_MOTION":15.39159463,"ECCENTRICITY":0.0003088,"INCLINATION":97.3745,"RA_OF_ASC_NODE":149.4006,"ARG_OF_PERICENTER":274.7319,"MEAN_ANOMALY":85.3573,"EPHEMERIS_TYPE":0,"CLASSIFICATION_TYPE":"U","NORAD_CAT_ID":60501,"ELEMENT_SET_NO":999,"REV_AT_EPOCH":8664,"BSTAR":0.00062037,"MEAN_MOTION_DOT":0.00024046,"MEAN_MOTION_DDOT":0},{"OBJECT_NAME":"FLOCK 4BE-24","OBJECT_ID":"2024-149AP","EPOCH":"2026-03-07T03:56:41.123040","MEAN_MOTION":15.39026184,"ECCENTRICITY":0.0002943,"INCLINATION":97.376,"RA_OF_ASC_NODE":149.6282,"ARG_OF_PERICENTER":284.9292,"MEAN_ANOMALY":75.1628,"EPHEMERIS_TYPE":0,"CLASSIFICATION_TYPE":"U","NORAD_CAT_ID":60505,"ELEMENT_SET_NO":999,"REV_AT_EPOCH":8665,"BSTAR":0.00063336,"MEAN_MOTION_DOT":0.00024445,"MEAN_MOTION_DDOT":0},{"OBJECT_NAME":"TANAGER-1","OBJECT_ID":"2024-149AR","EPOCH":"2026-03-05T08:23:36.927744","MEAN_MOTION":15.43548696,"ECCENTRICITY":0.0006725,"INCLINATION":97.377,"RA_OF_ASC_NODE":157.6642,"ARG_OF_PERICENTER":235.9479,"MEAN_ANOMALY":124.1131,"EPHEMERIS_TYPE":0,"CLASSIFICATION_TYPE":"U","NORAD_CAT_ID":60507,"ELEMENT_SET_NO":999,"REV_AT_EPOCH":8701,"BSTAR":0.00012407,"MEAN_MOTION_DOT":5.482e-5,"MEAN_MOTION_DDOT":0},{"OBJECT_NAME":"FLOCK 4BE-29","OBJECT_ID":"2024-149AT","EPOCH":"2026-03-07T04:38:05.472960","MEAN_MOTION":15.4030916,"ECCENTRICITY":0.0001945,"INCLINATION":97.3846,"RA_OF_ASC_NODE":150.7965,"ARG_OF_PERICENTER":304.9243,"MEAN_ANOMALY":55.182,"EPHEMERIS_TYPE":0,"CLASSIFICATION_TYPE":"U","NORAD_CAT_ID":60509,"ELEMENT_SET_NO":999,"REV_AT_EPOCH":8669,"BSTAR":0.00067554,"MEAN_MOTION_DOT":0.00027206,"MEAN_MOTION_DDOT":0},{"OBJECT_NAME":"FLOCK 4BE-2","OBJECT_ID":"2024-149AV","EPOCH":"2026-03-07T03:57:58.884768","MEAN_MOTION":15.42926469,"ECCENTRICITY":0.0002793,"INCLINATION":97.3851,"RA_OF_ASC_NODE":151.337,"ARG_OF_PERICENTER":282.9083,"MEAN_ANOMALY":77.1852,"EPHEMERIS_TYPE":0,"CLASSIFICATION_TYPE":"U","NORAD_CAT_ID":60511,"ELEMENT_SET_NO":999,"REV_AT_EPOCH":8672,"BSTAR":0.001164,"MEAN_MOTION_DOT":0.0005136,"MEAN_MOTION_DDOT":0},{"OBJECT_NAME":"FLOCK 4BE-13","OBJECT_ID":"2024-149AW","EPOCH":"2026-03-07T04:05:02.503968","MEAN_MOTION":15.38702815,"ECCENTRICITY":0.0003399,"INCLINATION":97.3761,"RA_OF_ASC_NODE":149.7359,"ARG_OF_PERICENTER":277.1244,"MEAN_ANOMALY":82.9614,"EPHEMERIS_TYPE":0,"CLASSIFICATION_TYPE":"U","NORAD_CAT_ID":60512,"ELEMENT_SET_NO":999,"REV_AT_EPOCH":8666,"BSTAR":0.00057116,"MEAN_MOTION_DOT":0.00021798,"MEAN_MOTION_DDOT":0},{"OBJECT_NAME":"FLOCK 4BE-27","OBJECT_ID":"2024-149AX","EPOCH":"2026-03-07T03:24:02.036736","MEAN_MOTION":15.3251751,"ECCENTRICITY":0.0002718,"INCLINATION":97.3866,"RA_OF_ASC_NODE":148.0706,"ARG_OF_PERICENTER":318.593,"MEAN_ANOMALY":41.5106,"EPHEMERIS_TYPE":0,"CLASSIFICATION_TYPE":"U","NORAD_CAT_ID":60513,"ELEMENT_SET_NO":999,"REV_AT_EPOCH":8650,"BSTAR":0.00036671,"MEAN_MOTION_DOT":0.00011442,"MEAN_MOTION_DDOT":0},{"OBJECT_NAME":"FLOCK 4BE-9","OBJECT_ID":"2024-149AY","EPOCH":"2026-03-07T03:41:11.038272","MEAN_MOTION":15.37475,"ECCENTRICITY":0.0001519,"INCLINATION":97.383,"RA_OF_ASC_NODE":149.67,"ARG_OF_PERICENTER":309.7714,"MEAN_ANOMALY":50.3397,"EPHEMERIS_TYPE":0,"CLASSIFICATION_TYPE":"U","NORAD_CAT_ID":60514,"ELEMENT_SET_NO":999,"REV_AT_EPOCH":8662,"BSTAR":0.00053895,"MEAN_MOTION_DOT":0.00019753,"MEAN_MOTION_DDOT":0},{"OBJECT_NAME":"FLOCK 4BE-6","OBJECT_ID":"2024-149BA","EPOCH":"2026-03-07T04:12:58.834944","MEAN_MOTION":15.36510185,"ECCENTRICITY":0.0002256,"INCLINATION":97.3833,"RA_OF_ASC_NODE":149.2208,"ARG_OF_PERICENTER":305.3477,"MEAN_ANOMALY":54.7556,"EPHEMERIS_TYPE":0,"CLASSIFICATION_TYPE":"U","NORAD_CAT_ID":60516,"ELEMENT_SET_NO":999,"REV_AT_EPOCH":8659,"BSTAR":0.00048558,"MEAN_MOTION_DOT":0.00017239,"MEAN_MOTION_DDOT":0},{"OBJECT_NAME":"FLOCK 4BE-14","OBJECT_ID":"2024-149BB","EPOCH":"2026-03-07T04:13:28.584192","MEAN_MOTION":15.37563988,"ECCENTRICITY":0.0003236,"INCLINATION":97.3745,"RA_OF_ASC_NODE":149.2924,"ARG_OF_PERICENTER":301.491,"MEAN_ANOMALY":58.6018,"EPHEMERIS_TYPE":0,"CLASSIFICATION_TYPE":"U","NORAD_CAT_ID":60517,"ELEMENT_SET_NO":999,"REV_AT_EPOCH":8663,"BSTAR":0.00054976,"MEAN_MOTION_DOT":0.00020212,"MEAN_MOTION_DDOT":0},{"OBJECT_NAME":"FLOCK 4BE-1","OBJECT_ID":"2024-149BC","EPOCH":"2026-03-07T03:49:58.448064","MEAN_MOTION":15.38839424,"ECCENTRICITY":0.0003221,"INCLINATION":97.382,"RA_OF_ASC_NODE":150.2131,"ARG_OF_PERICENTER":296.5691,"MEAN_ANOMALY":63.5224,"EPHEMERIS_TYPE":0,"CLASSIFICATION_TYPE":"U","NORAD_CAT_ID":60518,"ELEMENT_SET_NO":999,"REV_AT_EPOCH":8666,"BSTAR":0.00058714,"MEAN_MOTION_DOT":0.00022512,"MEAN_MOTION_DDOT":0},{"OBJECT_NAME":"FLOCK 4BE-28","OBJECT_ID":"2024-149BD","EPOCH":"2026-03-07T04:32:37.029408","MEAN_MOTION":15.40865332,"ECCENTRICITY":0.0003558,"INCLINATION":97.3787,"RA_OF_ASC_NODE":150.6708,"ARG_OF_PERICENTER":296.7972,"MEAN_ANOMALY":63.291,"EPHEMERIS_TYPE":0,"CLASSIFICATION_TYPE":"U","NORAD_CAT_ID":60519,"ELEMENT_SET_NO":999,"REV_AT_EPOCH":8671,"BSTAR":0.00065008,"MEAN_MOTION_DOT":0.00026664,"MEAN_MOTION_DDOT":0},{"OBJECT_NAME":"FLOCK 4BE-35","OBJECT_ID":"2024-149CU","EPOCH":"2026-03-07T04:19:11.180928","MEAN_MOTION":15.43075975,"ECCENTRICITY":0.0004766,"INCLINATION":97.379,"RA_OF_ASC_NODE":149.3911,"ARG_OF_PERICENTER":266.9176,"MEAN_ANOMALY":93.1526,"EPHEMERIS_TYPE":0,"CLASSIFICATION_TYPE":"U","NORAD_CAT_ID":60558,"ELEMENT_SET_NO":999,"REV_AT_EPOCH":8661,"BSTAR":0.0022362,"MEAN_MOTION_DOT":0.00099892,"MEAN_MOTION_DDOT":0},{"OBJECT_NAME":"FLOCK 4BE-5","OBJECT_ID":"2024-149CV","EPOCH":"2026-03-07T04:30:36.872064","MEAN_MOTION":15.36883534,"ECCENTRICITY":0.0002488,"INCLINATION":97.3882,"RA_OF_ASC_NODE":149.4393,"ARG_OF_PERICENTER":303.7369,"MEAN_ANOMALY":56.3638,"EPHEMERIS_TYPE":0,"CLASSIFICATION_TYPE":"U","NORAD_CAT_ID":60559,"ELEMENT_SET_NO":999,"REV_AT_EPOCH":8659,"BSTAR":0.00064203,"MEAN_MOTION_DOT":0.00023113,"MEAN_MOTION_DDOT":0}]
